#aV2014 10  7  0  0  0.00000000     288 DD+AD WGS84 FIT  NGA
## 1813 172800.00000000   300.00000000 56937 0.0000000000000
+   31     1  2  4  5  6  7  8  9 10 11 12 13 14 15 16 17 18
+         19 20 21 22 23 24 25 26 27 28 29 30 31 32  0  0  0
+          0  0  0  0  0  0  0  0  0  0  0  0  0  0  0  0  0
+          0  0  0  0  0  0  0  0  0  0  0  0  0  0  0  0  0
+          0  0  0  0  0  0  0  0  0  0  0  0  0  0  0  0  0
++         2  2  2  2  2  2  2  2  2  2  2  2  2  2  2  2  2
++         2  2  2  2  2  2  2  2  2  2  2  2  2  2  0  0  0
++         0  0  0  0  0  0  0  0  0  0  0  0  0  0  0  0  0
++         0  0  0  0  0  0  0  0  0  0  0  0  0  0  0  0  0
++         0  0  0  0  0  0  0  0  0  0  0  0  0  0  0  0  0
%c cc cc ccc ccc cccc cccc cccc cccc ccccc ccccc ccccc ccccc
%c cc cc ccc ccc cccc cccc cccc cccc ccccc ccccc ccccc ccccc
%f  0.0000000  0.000000000  0.00000000000  0.000000000000000
%f  0.0000000  0.000000000  0.00000000000  0.000000000000000
%i    0    0    0    0      0      0      0      0         0
%i    0    0    0    0      0      0      0      0         0
/*      NGA, ST. LOUIS,MO.                                  
/*   EPHEMERIS COMPUTED FROM  1 DAYS OF DATA                
/*   EPOCHA SMOOTHER                                       
/* CCCCCCCCCCCCCCCCCCCCCCCCCCCCCCCCCCCCCCCCCCCCCCCCCCCCCCCCC
*  2014 10  7 21 20  0.00000000
P  1   2842.122622  15008.164074 -21770.372751     22.201428                    
V  1 -26483.705526   7536.883707   1894.613540      0.004696                    
P  2  20005.640812 -14183.180056   9875.406631    522.845348                    
V  2  12740.989802   -614.722338 -28048.147279      0.022343                    
P  4   4987.411667  15031.059923 -21627.040764     -1.366241                    
V  4 -25630.171996   7908.105514   -169.375228     -0.003877                    
P  5   9259.246277 -12485.461020  21484.910483   -331.873020                    
V  5  20272.464131  18499.415644   2182.226214      0.040343                    
P  6  25747.641797  -6008.800408  -2453.014621     -1.772832                    
V  6  -2151.310780   3584.094549 -31570.593412      0.023337                    
P  7  16553.038909   8908.486422  18997.234075    399.825842                    
V  7 -22661.653068   7256.797499  16073.685000      0.040262                    
P  8   7490.686286  13232.748198  22034.895205     15.808003                    
V  8 -26981.783046   4495.894346   5915.480675      0.002613                    
P  9   9213.482760  16928.574491  18273.444419     13.143234                    
V  9  -6790.554151  22243.944847 -17201.908956     -0.043073                    
P 10  20740.444942   3795.249317  16042.675450   -144.792758                    
V 10  13612.692674  16024.578943 -20502.406601     -0.013991                    
P 11  -2873.771672  19813.927534 -17898.338764   -526.978674                    
V 11 -19440.998145  10738.921734  15638.610174     -0.029161                    
P 12  -6142.479104 -20866.519711 -15464.490243    237.275837                    
V 12  14394.076547  13000.253592 -23169.564044      0.026867                    
P 13  10869.531535  11844.006061  20987.999056    -48.856592                    
V 13  -9716.876367  25140.038488  -9258.494607     -0.035969                    
P 14 -15599.243936    919.447863 -21221.864003    127.610942                    
V 14   7705.170070 -26404.987126  -6878.984477     -0.036484                    
P 15   2477.108329 -26064.489518  -3408.852588   -207.286231                    
V 15   4588.524811  -3502.477958  30970.636810     -0.022278                    
P 16  -9382.451410  11219.486158  22096.298629   -189.719372                    
V 16 -19479.595395 -20303.567480   2378.141554      0.026470                    
P 17  15307.431181   -164.909122 -21413.027874   -129.166424                    
V 17  -7034.390997  26927.945281  -5394.522115     -0.025716                    
P 18 -20913.454694 -16326.623770  -2802.920000    349.866889                    
V 18   -557.832329  -5455.963642  30495.385411      0.025699                    
P 19  -8209.776963  24999.587523   -319.231377   -482.391952                    
V 19  -2928.534310   -766.549335  32179.305725     -0.017790                    
P 20  12155.368816  20928.379338 -11216.595290    242.595543                    
V 20 -12835.294485  -6440.685156 -26317.509830      0.043369                    
P 21 -21152.615215  -5785.500377  15927.931061   -388.143736                    
V 21  17501.342454  -7598.772281  20946.176934     -0.020493                    
P 22 -21726.856877  -5432.299205 -14187.035370    274.921163                    
V 22 -11587.433479 -14607.718647  22823.931318      0.037016                    
P 23   2265.904858  23895.659703  11017.004473    -58.079026                    
V 23  -6234.204192  12858.369462 -27341.049361     -0.028499                    
P 24   1268.619573 -16045.183611 -21127.533408    -36.439612                    
V 24  25816.542612  -7326.706137   7225.734466     -0.006693                    
P 25 -16408.559875 -20316.014675  -5311.552717     19.167132                    
V 25   6252.330632   2989.629531 -31088.098421     -0.012554                    
P 26  12364.631624 -22189.022638   6585.813297    -80.776647                    
V 26   -502.767444   9648.115825  30710.623312     -0.128563                    
P 27 -12462.305713  20828.871599  10687.079429     20.436041                    
V 27    736.501856 -13805.669067  27789.629854      0.029510                    
P 28  20847.585917  11459.928795 -11328.944144    389.673194                    
V 28   9099.169944  12364.385534  27646.518056      0.025912                    
P 29  -7281.446661 -18408.561417  17751.292335    565.245829                    
V 29   7691.079518 -21141.123485 -18759.049123      0.024877                    
P 30  24100.406582   2613.087124  10912.386188    -70.151210                    
V 30 -13000.453308   5365.779507  27379.079571     -0.037481                    
P 31 -25852.750144   6801.874615   -105.295514    330.823197                    
V 31   -215.693813  -2046.388678 -31904.769428     -0.005097                    
P 32  -1672.499715  18614.277310 -19044.356684   -322.878824                    
V 32 -17022.437818 -17106.014036 -14660.129374      0.087176                    
EOF
